NORAD_CAT_ID,OBJECT_NAME,OBJECT_TYPE,EPOCH,MEAN_MOTION,ECCENTRICITY,INCLINATION,RA_OF_ASC_NODE,ARG_OF_PERICENTER,MEAN_ANOMALY,BSTAR,MEAN_MOTION_DOT,MEAN_MOTION_DDOT,TLE_LINE0,TLE_LINE1,TLE_LINE2,SEMIMAJOR_AXIS,PERIOD,APOGEE,PERIGEE,DECAYED
53803.0,STARLINK-4727,PAYLOAD,2024-03-21 16:43:53,15.08849732,0.0001458,53.2171,232.36,97.2761,262.8397,5.578e-05,6e-06,0.0,0 STARLINK-4727,1 53803U 22111AG  24081.69714827  .00000600  00000-0  55780-4 0  9990,2 53803  53.2171 232.3600 0001458  97.2761 262.8397 15.08849732 84822,6917.851,95.437,540.724,538.707,0.0
53803.0,STARLINK-4727,PAYLOAD,2024-03-22 10:13:08,15.08840615,0.0001457,53.2174,229.0898,95.7455,264.3703,0.00015236,2.138e-05,0.0,0 STARLINK-4727,1 53803U 22111AG  24082.42579105  .00002138  00000-0  15236-3 0  9999,2 53803  53.2174 229.0898 0001457  95.7455 264.3703 15.08840615 84930,6917.879,95.438,540.751,538.736,0.0
53803.0,STARLINK-4727,PAYLOAD,2024-03-22 13:23:54,15.08844224,0.0001561,53.2175,228.4957,111.1245,248.9914,0.00013683,1.891e-05,0.0,0 STARLINK-4727,1 53803U 22111AG  24082.55826864  .00001891  00000-0  13683-3 0  9999,2 53803  53.2175 228.4957 0001561 111.1245 248.9914 15.08844224 85760,6917.867,95.437,540.812,538.653,0.0
53803.0,STARLINK-4727,PAYLOAD,2024-03-22 16:34:40,15.08846606,0.0001617,53.2176,227.9011,111.5,248.6165,0.00015839,2.234e-05,0.0,0 STARLINK-4727,1 53803U 22111AG  24082.69074645  .00002234  00000-0  15839-3 0  9993,2 53803  53.2176 227.9011 0001617 111.5000 248.6165 15.08846606 85784,6917.86,95.437,540.844,538.607,0.0
53803.0,STARLINK-4727,PAYLOAD,2024-03-23 13:14:42,15.08836376,0.000147,53.2179,224.035,104.31,255.8056,-4.9337e-06,-3.66e-06,0.0,0 STARLINK-4727,1 53803U 22111AG  24083.55188125 -.00000366  00000-0 -49337-5 0  9996,2 53803  53.2179 224.0350 0001470 104.3100 255.8056 15.08836376 85107,6917.891,95.438,540.773,538.74,0.0
53803.0,STARLINK-4727,PAYLOAD,2024-03-23 18:00:51,15.08843982,0.0001704,53.2179,223.1414,113.3436,246.7736,4.0489e-05,3.56e-06,0.0,0 STARLINK-4727,1 53803U 22111AG  24083.75059224  .00000356  00000-0  40489-4 0  9990,2 53803  53.2179 223.1414 0001704 113.3436 246.7736 15.08843982 85138,6917.868,95.437,540.912,538.554,0.0
53803.0,STARLINK-4727,PAYLOAD,2024-03-24 14:40:51,15.08848847,0.0001605,53.2181,219.2775,88.4655,271.6521,0.00013341,1.836e-05,0.0,0 STARLINK-4727,1 53803U 22111AG  24084.61171124  .00001836  00000-0  13341-3 0  9990,2 53803  53.2181 219.2775 0001605  88.4655 271.6521 15.08848847 86070,6917.853,95.437,540.829,538.608,0.0
53803.0,STARLINK-4727,PAYLOAD,2024-03-24 17:51:37,15.08865183,0.0001481,53.2162,218.6782,121.1481,238.9657,0.00035601,5.386e-05,0.0,0 STARLINK-4727,1 53803U 22111AG  24084.74418010  .00005386  00000-0  35601-3 0  9999,2 53803  53.2162 218.6782 0001481 121.1481 238.9657 15.08865183 85284,6917.803,95.436,540.693,538.644,0.0
53803.0,STARLINK-4727,PAYLOAD,2024-03-25 01:48:33,15.08844541,0.0001024,53.216,217.1926,108.086,252.0244,0.00019774,2.861e-05,0.0,0 STARLINK-4727,1 53803U 22111AG  24085.07539108  .00002861  00000-0  19774-3 0  9996,2 53803  53.2160 217.1926 0001024 108.0860 252.0244 15.08844541 85334,6917.867,95.437,540.44,539.023,0.0
53803.0,STARLINK-4727,PAYLOAD,2024-03-25 12:56:16,15.08835331,0.0001751,53.2176,215.1115,99.7695,260.3495,-8.2094e-06,-4.19e-06,0.0,0 STARLINK-4727,1 53803U 22111AG  24085.53907789 -.00000419  00000-0 -82094-5 0  9997,2 53803  53.2176 215.1115 0001751  99.7695 260.3495 15.08835331 85403,6917.895,95.438,540.971,538.548,0.0
53803.0,STARLINK-4727,PAYLOAD,2024-03-25 17:42:25,15.0884846,0.0001667,53.2173,214.2193,96.9822,263.1359,0.00025955,3.846e-05,0.0,0 STARLINK-4727,1 53803U 22111AG  24085.73779353  .00003846  00000-0  25955-3 0  9999,2 53803  53.2173 214.2193 0001667  96.9822 263.1359 15.08848460 85433,6917.855,95.437,540.873,538.566,0.0
53803.0,STARLINK-4727,PAYLOAD,2024-03-26 14:22:27,15.08824607,0.0001648,53.2163,210.3546,101.3514,258.7663,-0.00022933,-3.934e-05,0.0,0 STARLINK-4727,1 53803U 22111AG  24086.59893435 -.00003934  00000-0 -22933-3 0  9995,2 53803  53.2163 210.3546 0001648 101.3514 258.7663 15.08824607 85568,6917.927,95.439,540.933,538.652,0.0
53803.0,STARLINK-4727,PAYLOAD,2024-03-27 01:30:09,15.08832716,0.0001738,53.2173,208.2721,92.7138,267.4053,-3.0085e-05,-7.67e-06,0.0,0 STARLINK-4727,1 53803U 22111AG  24087.06261523 -.00000767  00000-0 -30085-4 0  9994,2 53803  53.2173 208.2721 0001738  92.7138 267.4053 15.08832716 85633,6917.903,95.438,540.97,538.565,0.0
53803.0,STARLINK-4727,PAYLOAD,2024-03-27 14:13:14,15.08850245,0.0001852,53.2171,205.893,84.9439,275.1764,0.00031257,4.691e-05,0.0,0 STARLINK-4727,1 53803U 22111AG  24087.59252819  .00004691  00000-0  31257-3 0  9999,2 53803  53.2171 205.8930 0001852  84.9439 275.1764 15.08850245 86521,6917.849,95.437,540.995,538.433,0.0
53803.0,STARLINK-4727,PAYLOAD,2024-03-27 17:24:00,15.08859452,0.0001568,53.2161,205.2971,87.3594,272.7577,0.00045774,7.008e-05,0.0,0 STARLINK-4727,1 53803U 22111AG  24087.72500443  .00007008  00000-0  45774-3 0  9997,2 53803  53.2161 205.2971 0001568  87.3594 272.7577 15.08859452 85738,6917.821,95.436,540.771,538.601,0.0
53803.0,STARLINK-4727,PAYLOAD,2024-03-28 01:20:56,15.08846108,0.0001565,53.2169,203.8112,91.5053,268.6118,0.0003671,5.56e-05,0.0,0 STARLINK-4727,1 53803U 22111AG  24088.05621075  .00005560  00000-0  36710-3 0  9990,2 53803  53.2169 203.8112 0001565  91.5053 268.6118 15.08846108 85785,6917.862,95.437,540.809,538.644,0.0
53803.0,STARLINK-4727,PAYLOAD,2024-03-28 14:04:01,15.0885605,0.0001795,53.2167,201.4334,87.9059,272.2139,0.00031249,4.691e-05,0.0,0 STARLINK-4727,1 53803U 22111AG  24088.58612733  .00004691  00000-0  31249-3 0  9995,2 53803  53.2167 201.4334 0001795  87.9059 272.2139 15.08856050 86673,6917.831,95.437,540.938,538.455,0.0
53803.0,STARLINK-4727,PAYLOAD,2024-03-29 13:54:47,15.08853425,0.0001579,53.2171,196.9745,85.7138,274.4034,0.00012062,1.633e-05,0.0,0 STARLINK-4727,1 53803U 22111AG  24089.57972147  .00001633  00000-0  12062-3 0  9998,2 53803  53.2171 196.9745 0001579  85.7138 274.4034 15.08853425 86015,6917.839,95.437,540.797,538.612,0.0
53803.0,STARLINK-4727,PAYLOAD,2024-03-29 17:05:33,15.08858997,0.0001561,53.2165,196.3783,89.0116,271.1055,4.1786e-05,3.77e-06,0.0,0 STARLINK-4727,1 53803U 22111AG  24089.71219739  .00000377  00000-0  41786-4 0  9995,2 53803  53.2165 196.3783 0001561  89.0116 271.1055 15.08858997 86845,6917.822,95.436,540.767,538.607,0.0
53803.0,STARLINK-4727,PAYLOAD,2024-03-30 13:45:34,15.08848897,0.0001564,53.2146,192.5132,93.0849,267.0322,0.00014345,1.996e-05,0.0,0 STARLINK-4727,1 53803U 22111AG  24090.57332043  .00001996  00000-0  14345-3 0  9993,2 53803  53.2146 192.5132 0001564  93.0849 267.0322 15.08848897 86165,6917.853,95.437,540.8,538.636,0.0
53803.0,STARLINK-4727,PAYLOAD,2024-03-31 13:36:22,15.08843785,0.0001553,53.2161,188.0569,103.154,256.9625,8.5928e-05,1.08e-05,0.0,0 STARLINK-4727,1 53803U 22111AG  24091.56692189  .00001080  00000-0  85928-4 0  9993,2 53803  53.2161 188.0569 0001553 103.1540 256.9625 15.08843785 86316,6917.869,95.437,540.808,538.659,0.0
53803.0,STARLINK-4727,PAYLOAD,2024-04-01 05:30:14,15.08829941,0.0001626,53.2168,185.0839,98.8574,261.2603,-3.4872e-05,-8.43e-06,0.0,0 STARLINK-4727,1 53803U 22111AG  24092.22933131 -.00000843  00000-0 -34872-4 0  9992,2 53803  53.2168 185.0839 0001626  98.8574 261.2603 15.08829941 86412,6917.911,95.438,540.901,538.651,0.0
53803.0,STARLINK-4727,PAYLOAD,2024-04-01 13:27:10,15.08826829,0.0001466,53.2166,183.5949,97.7194,262.3965,-0.00010229,-1.915e-05,0.0,0 STARLINK-4727,1 53803U 22111AG  24092.56053657 -.00001915  00000-0 -10229-3 0  9995,2 53803  53.2166 183.5949 0001466  97.7194 262.3965 15.08826829 87273,6917.921,95.438,540.8,538.771,0.0
53803.0,STARLINK-4727,PAYLOAD,2024-04-02 11:42:34,15.08839627,0.0001354,53.2156,179.4292,92.9127,267.202,0.00022356,3.272e-05,0.0,0 STARLINK-4727,1 53803U 22111AG  24093.48789687  .00003272  00000-0  22356-3 0  9996,2 53803  53.2156 179.4292 0001354  92.9127 267.2020 15.08839627 86608,6917.882,95.438,540.683,538.81,0.0
53803.0,STARLINK-4727,PAYLOAD,2024-04-02 13:17:57,15.08841571,0.0001327,53.2154,179.1317,92.8045,267.3099,0.00027212,4.046e-05,0.0,0 STARLINK-4727,1 53803U 22111AG  24093.55413654  .00004046  00000-0  27212-3 0  9998,2 53803  53.2154 179.1317 0001327  92.8045 267.3099 15.08841571 87428,6917.876,95.437,540.659,538.823,0.0
53803.0,STARLINK-4727,PAYLOAD,2024-04-02 22:50:16,15.08846815,0.0001293,53.2152,177.347,90.9871,269.1269,0.00037761,5.728e-05,0.0,0 STARLINK-4727,1 53803U 22111AG  24093.95157553  .00005728  00000-0  37761-3 0  9993,2 53803  53.2152 177.3470 0001293  90.9871 269.1269 15.08846815 87485,6917.86,95.437,540.619,538.83,0.0
53803.0,STARLINK-4727,PAYLOAD,2024-04-03 13:08:43,15.08858208,0.0001357,53.2151,174.671,93.3091,266.8056,0.00050033,7.688e-05,0.0,0 STARLINK-4727,1 53803U 22111AG  24094.54773096  .00007688  00000-0  50033-3 0  9999,2 53803  53.2151 174.6710 0001357  93.3091 266.8056 15.08858208 87570,6917.825,95.436,540.628,538.751,0.0
53803.0,STARLINK-4727,PAYLOAD,2024-04-03 14:44:06,15.08861675,0.0001377,53.2149,174.3735,93.1358,266.9792,0.00054581,8.414e-05,0.0,0 STARLINK-4727,1 53803U 22111AG  24094.61396942  .00008414  00000-0  54581-3 0  9998,2 53803  53.2149 174.3735 0001377  93.1358 266.9792 15.08861675 86778,6917.814,95.436,540.632,538.727,0.0
53803.0,STARLINK-4727,PAYLOAD,2024-04-03 22:41:02,15.08851719,0.0001207,53.2154,172.8855,104.5336,255.579,0.00013442,1.853e-05,0.0,0 STARLINK-4727,1 53803U 22111AG  24094.94516824  .00001853  00000-0  13442-3 0  9998,2 53803  53.2154 172.8855 0001207 104.5336 255.5790 15.08851719 87631,6917.845,95.437,540.545,538.875,0.0
53803.0,STARLINK-4727,PAYLOAD,2024-04-04 05:02:35,15.08849947,0.0001765,53.2146,171.6981,91.6228,268.4967,0.00011817,1.594e-05,0.0,0 STARLINK-4727,1 53803U 22111AG  24095.21012995  .00001594  00000-0  11817-3 0  9995,2 53803  53.2146 171.6981 0001765  91.6228 268.4967 15.08849947 86867,6917.85,95.437,540.936,538.494,0.0
